[{"OBJECT_NAME":"JILIN-1 GAOFEN 3D06","OBJECT_ID":"2022-046D","EPOCH":"2026-03-09T20:32:42.708768","MEAN_MOTION":15.77506946,"ECCENTRICITY":0.00026293,"INCLINATION":97.4988,"RA_OF_ASC_NODE":185.9829,"ARG_OF_PERICENTER":243.9141,"MEAN_ANOMALY":116.1854,"EPHEMERIS_TYPE":0,"CLASSIFICATION_TYPE":"U","NORAD_CAT_ID":52391,"ELEMENT_SET_NO":999,"REV_AT_EPOCH":21494,"BSTAR":0.0011303209,"MEAN_MOTION_DOT":0.00190664,"MEAN_MOTION_DDOT":0},{"OBJECT_NAME":"STARLINK-36704","OBJECT_ID":"2026-025E","EPOCH":"2026-03-09T20:23:33.791424","MEAN_MOTION":15.75207906,"ECCENTRICITY":0.00017308,"INCLINATION":97.2838,"RA_OF_ASC_NODE":180.4112,"ARG_OF_PERICENTER":59.6827,"MEAN_ANOMALY":300.4609,"EPHEMERIS_TYPE":0,"CLASSIFICATION_TYPE":"U","NORAD_CAT_ID":67697,"ELEMENT_SET_NO":999,"REV_AT_EPOCH":596,"BSTAR":0.0019763589,"MEAN_MOTION_DOT":0.00305696,"MEAN_MOTION_DDOT":0}]
