JILIN-1 GAOFEN 3D06     
1 52391U 22046D   26068.85604986  .00190664  00000+0  11303-2 0  9997
2 52391  97.4988 185.9829 0002629 243.9141 116.1854 15.77506946214948
STARLINK-36704          
1 67697U 26025E   26068.84969666  .00305696  00000+0  19764-2 0  9993
2 67697  97.2838 180.4112 0001731  59.6827 300.4609 15.75207906  5964
